{"version": 0.6, "generator": "Overpass API 0.7.62.5 1bd436f1", "osm3s": {"timestamp_osm_base": "2025-06-02T01:55:31Z", "copyright": "The data included in this document is from www.openstreetmap.org. The data is made available under ODbL."}, "elements": [{"type": "node", "id": 2607345161, "lat": 51.2126399, "lon": -107.8877739}, {"type": "node", "id": 2607345371, "lat": 51.2415854, "lon": -107.9575677}, {"type": "node", "id": 2607345373, "lat": 51.2415983, "lon": -107.9807972}, {"type": "node", "id": 2607345375, "lat": 51.2416111, "lon": -108.0}, {"type": "node", "id": 2607345378, "lat": 51.2416466, "lon": -107.934429}, {"type": "node", "id": 2607345381, "lat": 51.2416994, "lon": -107.9179388}, {"type": "node", "id": 2607345382, "lat": 51.2417048, "lon": -107.9162769}, {"type": "node", "id": 2607345384, "lat": 51.2417179, "lon": -107.9017246, "tags": {"railway": "level_crossing"}}, {"type": "node", "id": 2607345385, "lat": 51.2417203, "lon": -107.9109615}, {"type": "node", "id": 2607345387, "lat": 51.2417378, "lon": -107.8877628}, {"type": "node", "id": 2607345395, "lat": 51.241761, "lon": -107.9028104}, {"type": "node", "id": 2607345398, "lat": 51.2417679, "lon": -107.9057915}, {"type": "node", "id": 2607345399, "lat": 51.2417768, "lon": -107.8413659}, {"type": "node", "id": 2607345401, "lat": 51.2418434, "lon": -107.9031166}, {"type": "node", "id": 2607345404, "lat": 51.242009, "lon": -107.9033276}, {"type": "node", "id": 2607345406, "lat": 51.2423027, "lon": -107.9016409}, {"type": "node", "id": 2607345410, "lat": 51.2427803, "lon": -107.8997937}, {"type": "node", "id": 2607345431, "lat": 51.2464263, "lon": -107.8877179, "tags": {"railway": "level_crossing"}}, {"type": "node", "id": 2607345434, "lat": 51.2468134, "lon": -107.8877162}, {"type": "node", "id": 2607345462, "lat": 51.2500625, "lon": -107.87808}, {"type": "node", "id": 2607422562, "lat": 51.5, "lon": -107.6631552}, {"type": "node", "id": 2607422564, "lat": 51.5, "lon": -107.6913302}, {"type": "node", "id": 2607422591, "lat": 51.5000604, "lon": -107.6635914}, {"type": "node", "id": 2607422599, "lat": 51.5006555, "lon": -107.6678772}, {"type": "node", "id": 2607422600, "lat": 51.5009975, "lon": -107.6678683}, {"type": "node", "id": 2607422605, "lat": 51.5035016, "lon": -107.6885651}, {"type": "node", "id": 2607422606, "lat": 51.5037858, "lon": -107.6914641}, {"type": "node", "id": 2607422607, "lat": 51.5038221, "lon": -107.6444277}, {"type": "node", "id": 2607422609, "lat": 51.5038276, "lon": -107.688469}, {"type": "node", "id": 2607422610, "lat": 51.5038304, "lon": -107.6678753}, {"type": "node", "id": 2607422611, "lat": 51.5038277, "lon": -107.6880981, "tags": {"railway": "level_crossing"}}, {"type": "node", "id": 2607422615, "lat": 51.5038509, "lon": -107.9960898}, {"type": "node", "id": 2607422616, "lat": 51.5038513, "lon": -107.8717572}, {"type": "node", "id": 2607422617, "lat": 51.5038533, "lon": -107.9726846}, {"type": "node", "id": 2607422618, "lat": 51.5038535, "lon": -107.9023394}, {"type": "node", "id": 2607422619, "lat": 51.5038548, "lon": -107.6951142}, {"type": "node", "id": 2607422620, "lat": 51.5038551, "lon": -107.9257878}, {"type": "node", "id": 2607422621, "lat": 51.5038596, "lon": -107.714786}, {"type": "node", "id": 2607422622, "lat": 51.5038607, "lon": -107.9492509}, {"type": "node", "id": 2607422623, "lat": 51.5038628, "lon": -107.8554581}, {"type": "node", "id": 2607422624, "lat": 51.5038635, "lon": -107.7382049}, {"type": "node", "id": 2607422625, "lat": 51.503865, "lon": -107.8320103}, {"type": "node", "id": 2607422628, "lat": 51.5038713, "lon": -107.8085772}, {"type": "node", "id": 2607422629, "lat": 51.5038716, "lon": -107.75}, {"type": "node", "id": 2607422630, "lat": 51.5038796, "lon": -107.7616678}, {"type": "node", "id": 2607422631, "lat": 51.5038828, "lon": -107.7851013}, {"type": "node", "id": 2607422632, "lat": 51.5039269, "lon": -107.878939}, {"type": "node", "id": 2607422697, "lat": 51.5184005, "lon": -107.6678766}, {"type": "node", "id": 2607422709, "lat": 51.5329616, "lon": -107.6678775}, {"type": "node", "id": 2607422715, "lat": 51.5329749, "lon": -107.6446613}, {"type": "node", "id": 2607422717, "lat": 51.5329766, "lon": -107.6209542}, {"type": "node", "id": 2607437819, "lat": 51.2708283, "lon": -107.8554326}, {"type": "node", "id": 2607437821, "lat": 51.2708304, "lon": -107.8788334}, {"type": "node", "id": 2607438049, "lat": 51.2871604, "lon": -107.7380726}, {"type": "node", "id": 2607438174, "lat": 51.2998933, "lon": -107.8319563}, {"type": "node", "id": 2607438185, "lat": 51.2999438, "lon": -107.8554179}, {"type": "node", "id": 2607438189, "lat": 51.2999595, "lon": -107.7380986}, {"type": "node", "id": 2607438377, "lat": 51.3144938, "lon": -107.7381176}, {"type": "node", "id": 2607438468, "lat": 51.3290349, "lon": -107.8319722}, {"type": "node", "id": 2607438472, "lat": 51.3290777, "lon": -107.8085446}, {"type": "node", "id": 2607438485, "lat": 51.3290999, "lon": -107.738141}, {"type": "node", "id": 2607438663, "lat": 51.358202, "lon": -107.8085166}, {"type": "node", "id": 2607438667, "lat": 51.3582138, "lon": -107.7850579}, {"type": "node", "id": 2607438675, "lat": 51.3582229, "lon": -107.7381544}, {"type": "node", "id": 2607439315, "lat": 51.3873462, "lon": -107.7850593}, {"type": "node", "id": 2607439320, "lat": 51.387354, "lon": -107.7381977}, {"type": "node", "id": 2607439328, "lat": 51.3873621, "lon": -107.7616004}, {"type": "node", "id": 2607440049, "lat": 51.4164838, "lon": -107.714724}, {"type": "node", "id": 2607440057, "lat": 51.4164954, "lon": -107.7381849}, {"type": "node", "id": 2607440061, "lat": 51.4164967, "lon": -107.7850481}, {"type": "node", "id": 2607440817, "lat": 51.445589, "lon": -107.6913205}, {"type": "node", "id": 2607440829, "lat": 51.4456063, "lon": -107.714739}, {"type": "node", "id": 2607440855, "lat": 51.445627, "lon": -107.738201}, {"type": "node", "id": 2607440930, "lat": 51.4747115, "lon": -107.6913213}, {"type": "node", "id": 2607440958, "lat": 51.474736, "lon": -107.6678328}, {"type": "node", "id": 2607440960, "lat": 51.4747373, "lon": -107.7147696}, {"type": "node", "id": 2607440987, "lat": 51.4747674, "lon": -107.7382183}, {"type": "node", "id": 10969895836, "lat": 51.5010396, "lon": -107.6678681, "tags": {"railway": "level_crossing"}}, {"type": "way", "id": 254974497, "nodes": [2607345387, 2607345399], "tags": {"highway": "unclassified", "lanes": "2", "maxspeed": "80", "source": "NRCan-CanVec-10.0", "surface": "gravel"}}, {"type": "way", "id": 254974678, "nodes": [2607345161, 2607345387], "tags": {"highway": "unclassified", "lanes": "2", "maxspeed": "80", "source": "NRCan-CanVec-10.0", "surface": "gravel"}}, {"type": "way", "id": 254974747, "nodes": [2607345387, 2607345431, 2607345434], "tags": {"highway": "unclassified", "lanes": "2", "maxspeed": "80", "source": "NRCan-CanVec-10.0", "surface": "gravel"}}, {"type": "way", "id": 254974816, "nodes": [2607345387, 2607345384, 2607345395, 2607345401, 2607345404], "tags": {"highway": "unclassified", "lanes": "2", "maxspeed": "80", "source": "NRCan-CanVec-10.0", "surface": "gravel"}}, {"type": "way", "id": 254974884, "nodes": [2607345462, 2607345434, 2607345410, 2607345406, 2607345404, 2607345398, 2607345385, 2607345382, 2607345381, 2607345378, 2607345371, 2607345373, 2607345375], "tags": {"highway": "primary", "lanes": "2", "maxspeed": "90", "name": "Highway 44", "ref": "44", "source": "NRCan-CanVec-10.0", "surface": "paved"}}, {"type": "way", "id": 254984273, "nodes": [2607422715, 2607422709], "tags": {"highway": "unclassified", "lanes": "2", "maxspeed": "80", "source": "NRCan-CanVec-10.0", "surface": "gravel"}}, {"type": "way", "id": 254984436, "nodes": [2607422717, 2607422715], "tags": {"highway": "unclassified", "lanes": "2", "maxspeed": "80", "source": "NRCan-CanVec-10.0", "surface": "gravel"}}, {"type": "way", "id": 254984651, "nodes": [2607422607, 2607422610], "tags": {"highway": "unclassified", "lanes": "2", "maxspeed": "80", "source": "NRCan-CanVec-10.0", "surface": "dirt"}}, {"type": "way", "id": 254984775, "nodes": [2607422610, 2607422697], "tags": {"highway": "unclassified", "lanes": "2", "maxspeed": "80", "source": "NRCan-CanVec-10.0", "surface": "gravel"}}, {"type": "way", "id": 254984806, "nodes": [2607422599, 2607422600, 10969895836, 2607422610], "tags": {"highway": "unclassified", "lanes": "2", "maxspeed": "80", "source": "NRCan-CanVec-10.0", "surface": "gravel"}}, {"type": "way", "id": 254984817, "nodes": [2607422606, 2607422609, 2607422611, 2607422610], "tags": {"highway": "unclassified", "lanes": "2", "maxspeed": "80", "source": "NRCan-CanVec-10.0", "surface": "gravel"}}, {"type": "way", "id": 254985091, "nodes": [2607422562, 2607422591, 2607422599, 2607422605, 2607422606, 2607422619, 2607422621, 2607422624, 2607422629, 2607422630, 2607422631, 2607422628, 2607422625, 2607422623, 2607422616, 2607422632, 2607422618, 2607422620, 2607422622, 2607422617, 2607422615], "tags": {"highway": "primary", "lanes": "2", "maxspeed": "100", "ref": "15", "source": "NRCan-CanVec-10.0", "surface": "paved"}}, {"type": "way", "id": 254986537, "nodes": [2607438174, 2607438468], "tags": {"highway": "unclassified", "lanes": "2", "maxspeed": "80", "name": "Glamis Road", "source": "NRCan-CanVec-10.0", "surface": "gravel"}}, {"type": "way", "id": 254986551, "nodes": [2607438174, 2607438185], "tags": {"highway": "unclassified", "lanes": "2", "maxspeed": "80", "name": "Windy Plain Road", "source": "NRCan-CanVec-10.0", "surface": "dirt"}}, {"type": "way", "id": 254986576, "nodes": [2607440049, 2607440057], "tags": {"highway": "unclassified", "lanes": "2", "maxspeed": "80", "source": "NRCan-CanVec-10.0", "surface": "gravel"}}, {"type": "way", "id": 254986660, "nodes": [2607438667, 2607438663], "tags": {"highway": "unclassified", "lanes": "2", "maxspeed": "80", "source": "NRCan-CanVec-10.0", "surface": "gravel"}}, {"type": "way", "id": 254986669, "nodes": [2607439315, 2607439328], "tags": {"highway": "unclassified", "lanes": "2", "maxspeed": "80", "source": "NRCan-CanVec-10.0", "surface": "gravel"}}, {"type": "way", "id": 254986671, "nodes": [2607440930, 2607422564], "tags": {"highway": "unclassified", "lanes": "2", "maxspeed": "80", "source": "NRCan-CanVec-10.0", "surface": "gravel"}}, {"type": "way", "id": 254986691, "nodes": [2607437819, 2607437821], "tags": {"highway": "unclassified", "lanes": "2", "maxspeed": "80", "source": "NRCan-CanVec-10.0", "surface": "gravel"}}, {"type": "way", "id": 254986718, "nodes": [2607440057, 2607440061], "tags": {"highway": "unclassified", "lanes": "2", "maxspeed": "80", "source": "NRCan-CanVec-10.0", "surface": "gravel"}}, {"type": "way", "id": 254986723, "nodes": [2607440930, 2607440958], "tags": {"highway": "unclassified", "lanes": "2", "maxspeed": "80", "source": "NRCan-CanVec-10.0", "surface": "gravel"}}, {"type": "way", "id": 254986740, "nodes": [2607438472, 2607438663], "tags": {"highway": "unclassified", "lanes": "2", "maxspeed": "80", "source": "NRCan-CanVec-10.0", "surface": "gravel"}}, {"type": "way", "id": 254986749, "nodes": [2607440817, 2607440829], "tags": {"highway": "unclassified", "lanes": "2", "maxspeed": "80", "source": "NRCan-CanVec-10.0", "surface": "gravel"}}, {"type": "way", "id": 254986770, "nodes": [2607440930, 2607440960], "tags": {"highway": "unclassified", "lanes": "2", "maxspeed": "80", "source": "NRCan-CanVec-10.0", "surface": "gravel"}}, {"type": "way", "id": 254986919, "nodes": [2607440829, 2607440960], "tags": {"highway": "unclassified", "lanes": "2", "maxspeed": "80", "source": "NRCan-CanVec-10.0", "surface": "gravel"}}, {"type": "way", "id": 254987014, "nodes": [2607440049, 2607440829], "tags": {"highway": "unclassified", "lanes": "2", "maxspeed": "80", "source": "NRCan-CanVec-10.0", "surface": "gravel"}}, {"type": "way", "id": 254987047, "nodes": [2607440829, 2607440855], "tags": {"highway": "unclassified", "lanes": "2", "maxspeed": "80", "source": "NRCan-CanVec-10.0", "surface": "gravel"}}, {"type": "way", "id": 254987083, "nodes": [2607438468, 2607438472], "tags": {"highway": "unclassified", "lanes": "2", "maxspeed": "80", "source": "NRCan-CanVec-10.0", "surface": "gravel"}}, {"type": "way", "id": 254987282, "nodes": [2607438049, 2607438189, 2607438377, 2607438485, 2607438675, 2607439320, 2607440057, 2607440855, 2607440987], "tags": {"highway": "secondary", "lanes": "2", "maxspeed": "80", "name": "Highway 664", "ref": "664", "source": "NRCan-CanVec-10.0", "surface": "gravel"}}]}